[{"OBJECT_NAME":"STARLINK-35397","OBJECT_ID":"2025-221C","EPOCH":"2026-03-09T10:25:17.059872","MEAN_MOTION":15.30173529,"ECCENTRICITY":0.00012492,"INCLINATION":53.1597,"RA_OF_ASC_NODE":89.577,"ARG_OF_PERICENTER":79.9903,"MEAN_ANOMALY":280.1239,"EPHEMERIS_TYPE":0,"CLASSIFICATION_TYPE":"U","NORAD_CAT_ID":65825,"ELEMENT_SET_NO":999,"REV_AT_EPOCH":2604,"BSTAR":0.00057239237,"MEAN_MOTION_DOT":0.00016618,"MEAN_MOTION_DDOT":0},{"OBJECT_NAME":"COSMOS 970 DEB","OBJECT_ID":"1977-121BY","EPOCH":"2026-03-08T00:28:08.036544","MEAN_MOTION":15.38602545,"ECCENTRICITY":0.01254623,"INCLINATION":65.7647,"RA_OF_ASC_NODE":81.4591,"ARG_OF_PERICENTER":84.8291,"MEAN_ANOMALY":276.7158,"EPHEMERIS_TYPE":0,"CLASSIFICATION_TYPE":"U","NORAD_CAT_ID":20327,"ELEMENT_SET_NO":999,"REV_AT_EPOCH":74479,"BSTAR":0.0016623992,"MEAN_MOTION_DOT":0.00084425,"MEAN_MOTION_DDOT":0}]
